STARLINK-1007           
1 44713U 19074A   20120.91667824 -.00007324  00000-0 -48404-3 0  9999
2 44713  52.9975  72.4302 0001381  70.3867   2.2116 15.05577751  1815
STARLINK-1008           
1 44714U 19074B   20120.91667824 -.00005958  00000-0 -38955-3 0  9991
2 44714  53.0025  72.4114 0001818  66.7662  95.8693 15.05627967  1815
STARLINK-1009           
1 44715U 19074C   20120.91667824 -.00021989  00000-0 -14938-2 0  9998
2 44715  52.9957  72.4456 0001416  79.1307 137.4839 15.05600140  1814
STARLINK-1010           
1 44716U 19074D   20120.91667824  .00055338  00000-0  43069-2 0  9999
2 44716  52.9979  70.3761 0001660  70.2978 278.6678 15.00731366 26458
STARLINK-1011           
1 44717U 19074E   20120.91667824  .00016099  00000-0  11213-2 0  9997
2 44717  52.9966  92.4309 0001376  90.7645 357.7082 15.05587538  1816
STARLINK-1012           
1 44718U 19074F   20120.91667824 -.00005113  00000-0 -33202-3 0  9998
2 44718  52.9967  72.4292 0001679  73.7039 214.8641 15.05576163 26421
STARLINK-1013           
1 44719U 19074G   20120.91667824 -.00006914  00000-0 -45555-3 0  9993
2 44719  52.9972  72.4303 0001575  76.8749 157.7399 15.05597858  1813
STARLINK-1014           
1 44720U 19074H   20120.91667824 -.00006185  00000-0 -40526-3 0  9998
2 44720  53.0005  72.4138 0007446 321.8589 182.7028 15.05580856  1815
STARLINK-1015           
1 44721U 19074J   20120.91667824 -.00006216  00000-0 -40749-3 0  9991
2 44721  52.9903  72.4636 0001526  78.6618 119.9130 15.05605254  1802
STARLINK-1016           
1 44722U 19074K   20120.91667824 -.00005945  00000-0 -38895-3 0  9999
2 44722  53.0029  72.4039 0001777  71.5290 109.0822 15.05601192  1813
STARLINK-1017           
1 44723U 19074L   20120.91667824 -.00007004  00000-0 -46169-3 0  9991
2 44723  52.9976  72.4281 0001866  73.0870  35.4699 15.05601412  1811
STARLINK-1019           
1 44724U 19074M   20120.91667824 -.00007271  00000-0 -47999-3 0  9990
2 44724  52.9964  72.4314 0001555  79.4547 227.1553 15.05607488  1810
STARLINK-1020           
1 44725U 19074N   20120.91667824  .00014490  00000-0  10114-2 0  9998
2 44725  52.9968  92.4280 0001254  99.3608 133.0061 15.05586028  1819
STARLINK-1021           
1 44726U 19074P   20120.91667824 -.00007062  00000-0 -46567-3 0  9990
2 44726  52.9970  72.4306 0001742  76.3239 248.2854 15.05602723  1806
STARLINK-1022           
1 44727U 19074Q   20120.91667824  .00036399  00000-0  25049-2 0  9995
2 44727  53.0109 112.3536 0001398  84.3899 310.3305 15.05572920  1818
STARLINK-1023           
1 44728U 19074R   20120.91667824 -.00007650  00000-0 -55273-3 0  9999
2 44728  52.9986  71.8314 0001523  75.9836 325.5920 15.02341990  1819
STARLINK-1024           
1 44729U 19074S   20120.91667824  .00013189  00000-0  92248-3 0  9995
2 44729  52.9971  92.4249 0001621  93.8874  48.5820 15.05586287  1803
STARLINK-1025           
1 44730U 19074T   20120.91667824 -.00006723  00000-0 -44258-3 0  9993
2 44730  52.9970  72.4308 0001470  71.6952  54.8724 15.05587454  1812
STARLINK-1026           
1 44731U 19074U   20120.91667824  .00057094  00000-0  39038-2 0  9998
2 44731  52.9981  72.4317 0001561  62.0252 190.5075 15.05601373  1806
STARLINK-1027           
1 44732U 19074V   20120.91667824  .00017969  00000-0  12493-2 0  9992
2 44732  52.9989  92.4284 0001353  78.9068 207.6214 15.05580041  1803
STARLINK-1028           
1 44733U 19074W   20120.91667824 -.00006464  00000-0 -42456-3 0  9996
2 44733  52.9974  72.4322 0001815  78.2882 264.3693 15.05602596  1800
STARLINK-1029           
1 44734U 19074X   20120.91667824 -.00027892  00000-0 -32271-3 0  9999
2 44734  52.9972  54.0022 0005594 132.2522 199.0934 15.60842689 26687
STARLINK-1030           
1 44735U 19074Y   20120.91667824  .00015657  00000-0  10910-2 0  9999
2 44735  52.9988  92.4307 0001097  83.7188 166.7401 15.05592328  1807
STARLINK-1031           
1 44736U 19074Z   20120.91667824  .00077436  00000-0  62604-2 0  9990
2 44736  52.9990  92.0730 0001474  81.5987 281.2930 14.99099494 26152
STARLINK-1032           
1 44737U 19074AA  20120.91667824  .00014977  00000-0  10445-2 0  9998
2 44737  52.9972  92.4244 0001666  81.8392  24.6820 15.05593320  1811
STARLINK-1033           
1 44738U 19074AB  20120.91667824  .00012636  00000-0  88518-3 0  9996
2 44738  52.9941  92.4505 0000938  88.2195  90.3098 15.05566582  1807
STARLINK-1052           
1 44739U 19074AC  20120.91667824  .00013497  00000-0  94309-3 0  9998
2 44739  52.9965  92.4294 0001394  90.4083 124.0648 15.05604972  1809
STARLINK-1035           
1 44740U 19074AD  20120.91667824  .00013980  00000-0  97601-3 0  9995
2 44740  52.9968  92.4286 0001346  78.8169  45.6408 15.05608154  1816
STARLINK-1036           
1 44741U 19074AE  20120.91667824  .00076090  00000-0  51832-2 0  9992
2 44741  52.9985  92.4281 0001312  89.3101 341.0367 15.05595306 26141
STARLINK-1037           
1 44742U 19074AF  20120.77479912  .00002075  00000-0  16036-3 0  9996
2 44742  52.9984  92.9950 0000040 221.5814 138.5171 15.05850328 25955
STARLINK-1038           
1 44743U 19074AG  20120.91667824  .00091383  00000-0  62114-2 0  9991
2 44743  52.9981 112.4291 0001321  93.3119  49.3522 15.05572832  1803
STARLINK-1039           
1 44744U 19074AH  20120.91667824  .00090981  00000-0  61849-2 0  9999
2 44744  52.9969 112.4318 0001405  88.9481  17.7470 15.05570367  1818
STARLINK-1040           
1 44745U 19074AJ  20120.23043768  .00044869  00000-0  16656-3 0  9991
2 44745  52.9899  39.8511 0004310  51.0903 309.0504 15.87627563 26819
STARLINK-1041           
1 44746U 19074AK  20120.91667824  .00028180  00000-0  19470-2 0  9996
2 44746  52.9982 112.4273 0001302  91.7246  69.0971 15.05550862  1805
STARLINK-1042           
1 44747U 19074AL  20120.91667824  .00036964  00000-0  25440-2 0  9990
2 44747  53.0107 112.3586 0001487  79.5106 297.1871 15.05562490  1810
STARLINK-1043           
1 44748U 19074AM  20120.91667824  .00028851  00000-0  19914-2 0  9996
2 44748  53.0019 112.4082 0001702  82.9842 149.7334 15.05576219  1809
STARLINK-1044           
1 44749U 19074AN  20120.91667824  .00017673  00000-0  12286-2 0  9992
2 44749  52.9971  92.4312 0001192  76.7862 335.6435 15.05594216  1810
STARLINK-1045           
1 44750U 19074AP  20120.91667824  .00033037  00000-0  22748-2 0  9990
2 44750  52.9961 112.4302 0001520  83.7695   4.9519 15.05599078 25861
STARLINK-1046           
1 44751U 19074AQ  20120.91667824  .00085330  00000-0  58051-2 0  9990
2 44751  52.9961 112.4306 0001389  99.4124  25.2730 15.05579664 25871
STARLINK-1047           
1 44752U 19074AR  20120.91667824  .00018332  00000-0  12741-2 0  9995
2 44752  52.9969  92.4320 0001585  82.9010 311.5371 15.05578456  1810
STARLINK-1048           
1 44753U 19074AS  20120.91667824 -.00007261  00000-0 -47938-3 0  9994
2 44753  52.9980  72.4347 0001674  82.6409 331.9325 15.05601424  1816
STARLINK-1049           
1 44754U 19074AT  20120.91667824 -.00007196  00000-0 -47492-3 0  9997
2 44754  52.9979  72.4334 0001750  78.6922 317.8809 15.05599720  1816
STARLINK-1050           
1 44755U 19074AU  20120.91667824  .00034468  00000-0  23736-2 0  9992
2 44755  53.0133 112.3400 0001211  90.3348 340.3672 15.05575031 25874
STARLINK-1051           
1 44756U 19074AV  20120.91667824 -.00006902  00000-0 -45469-3 0  9995
2 44756  52.9961  72.4301 0002052  80.2383 298.3709 15.05602906  1812
STARLINK-1034           
1 44757U 19074AW  20120.91667824  .00019503  00000-0  13540-2 0  9999
2 44757  52.9990  92.4302 0001540  87.6487 234.8061 15.05578956  1807
STARLINK-1053           
1 44758U 19074AX  20120.91667824  .00034553  00000-0  23799-2 0  9999
2 44758  53.0059 112.3866 0000970  81.8109 222.8691 15.05565906  1803
STARLINK-1054           
1 44759U 19074AY  20120.91667824  .00036642  00000-0  25201-2 0  9991
2 44759  53.0069 112.3729 0001351  91.3656 249.3781 15.05593103  1804
STARLINK-1055           
1 44760U 19074AZ  20120.91667824  .00035644  00000-0  24525-2 0  9992
2 44760  53.0132 112.3483 0000993  90.0856 322.6702 15.05590298 25876
STARLINK-1056           
1 44761U 19074BA  20120.91667824  .00036917  00000-0  25405-2 0  9995
2 44761  53.0081 112.3659 0001543  92.1738 266.5755 15.05567030 25871
STARLINK-1057           
1 44762U 19074BB  20120.91667824  .00019557  00000-0  13569-2 0  9995
2 44762  52.9988  92.4264 0001586  61.5052 278.9324 15.05602053  1803
STARLINK-1058           
1 44763U 19074BC  20120.91667824  .00030092  00000-0  20761-2 0  9995
2 44763  53.0027 112.4019 0001606  87.6303 163.1070 15.05571993  1803
STARLINK-1059           
1 44764U 19074BD  20120.91667824  .00063261  00000-0  43219-2 0  9993
2 44764  52.9992  92.4272 0001271 102.3955 255.9885 15.05582187 26142
STARLINK-1060           
1 44765U 19074BE  20120.91667824  .00016704  00000-0  11632-2 0  9998
2 44765  52.9980  92.4298 0001444  87.0306 181.4235 15.05568990  1803
STARLINK-1061           
1 44766U 19074BF  20120.91667824  .00033140  00000-0  22834-2 0  9998
2 44766  53.0033 112.3935 0001360  95.1020 191.6103 15.05573159  1805
STARLINK-1062           
1 44767U 19074BG  20120.91667824  .00035725  00000-0  24599-2 0  9990
2 44767  53.0059 112.3792 0001552  80.0115 242.6758 15.05560827  1807
STARLINK-1063           
1 44768U 19074BH  20120.91667824  .00027765  00000-0  19188-2 0  9994
2 44768  53.0006 112.4199 0001430  94.5724 102.1842 15.05549590 25874
STARLINK-1064           
1 44769U 19074BJ  20120.91667824  .00027984  00000-0  19324-2 0  9990
2 44769  52.9985 112.4288 0001247 114.7365  64.0158 15.05575783  1806
STARLINK-1065           
1 44770U 19074BK  20120.47277853  .00001689  00000-0  13418-3 0  9995
2 44770  53.0037 114.3564 0000884 149.3437 210.7603 15.05841138 25638
STARLINK-1067           
1 44771U 19074BL  20120.91667824  .00031461  00000-0  21692-2 0  9999
2 44771  53.0039 112.4009 0001618  84.9210 183.7895 15.05572575 25877
